[{"OBJECT_NAME":"STARLINK-35645","OBJECT_ID":"2025-237L","EPOCH":"2026-03-09T05:57:25.919424","MEAN_MOTION":15.30191656,"ECCENTRICITY":0.00020592,"INCLINATION":53.1621,"RA_OF_ASC_NODE":41.6257,"ARG_OF_PERICENTER":52.0512,"MEAN_ANOMALY":308.0675,"EPHEMERIS_TYPE":0,"CLASSIFICATION_TYPE":"U","NORAD_CAT_ID":66124,"ELEMENT_SET_NO":999,"REV_AT_EPOCH":2254,"BSTAR":0.0013323174,"MEAN_MOTION_DOT":0.000393,"MEAN_MOTION_DDOT":0},{"OBJECT_NAME":"SPACEMOBILE-005 DEB","OBJECT_ID":"2024-163K","EPOCH":"2026-03-09T07:33:15.902496","MEAN_MOTION":15.31481997,"ECCENTRICITY":0.00072885,"INCLINATION":52.9762,"RA_OF_ASC_NODE":31.7924,"ARG_OF_PERICENTER":175.8731,"MEAN_ANOMALY":184.2329,"EPHEMERIS_TYPE":0,"CLASSIFICATION_TYPE":"U","NORAD_CAT_ID":62373,"ELEMENT_SET_NO":999,"REV_AT_EPOCH":8280,"BSTAR":0.00063853778,"MEAN_MOTION_DOT":0.00019381,"MEAN_MOTION_DDOT":0}]
